[{"OBJECT_NAME":"STARLINK-11306 [DTC]","OBJECT_ID":"2024-175M","EPOCH":"2026-03-09T22:31:01.737120","MEAN_MOTION":15.6968798,"ECCENTRICITY":0.0001418,"INCLINATION":53.1594,"RA_OF_ASC_NODE":55.1748,"ARG_OF_PERICENTER":80.0828,"MEAN_ANOMALY":280.035,"EPHEMERIS_TYPE":0,"CLASSIFICATION_TYPE":"U","NORAD_CAT_ID":61254,"ELEMENT_SET_NO":999,"REV_AT_EPOCH":8460,"BSTAR":2.0140333e-5,"MEAN_MOTION_DOT":1.849e-5,"MEAN_MOTION_DDOT":0},{"OBJECT_NAME":"FLOCK 4BE-16","OBJECT_ID":"2024-149R","EPOCH":"2026-03-09T18:09:47.863872","MEAN_MOTION":15.69331853,"ECCENTRICITY":0.0006629,"INCLINATION":97.3709,"RA_OF_ASC_NODE":154.3606,"ARG_OF_PERICENTER":231.2674,"MEAN_ANOMALY":128.7996,"EPHEMERIS_TYPE":0,"CLASSIFICATION_TYPE":"U","NORAD_CAT_ID":60483,"ELEMENT_SET_NO":999,"REV_AT_EPOCH":8717,"BSTAR":0.0016709449,"MEAN_MOTION_DOT":0.00199478,"MEAN_MOTION_DDOT":0}]
